ATLAS CENTAUR R/B       
1 06155U 72065B   26061.46376344  .00001728  00000+0  23839-3 0  9994
2 06155  35.0029 348.0992 0034291 308.4806  51.2821 14.77663257840190
SL-8 R/B                
1 08459U 75112B   26061.61670091  .00000263  00000+0  95190-4 0  9995
2 08459  74.0613  31.9223 0014599 128.0023 232.2452 14.38198646630855
SL-3 R/B                
1 10114U 77057B   26061.79061211  .00015064  00000+0  31826-3 0  9993
2 10114  97.5755 233.4093 0006440 313.8244  46.2472 15.45259759667264
SEASAT 1                
1 10967U 78064A   26061.78639686  .00000292  00000+0  12011-3 0  9996
2 10967 108.0127 111.0138 0002146 288.3510  71.7402 14.46154031505515
SL-14 R/B               
1 11267U 79011B   26061.60519078  .00000660  00000+0  62542-4 0  9990
2 11267  82.5216 103.2948 0017629  82.2454 278.0767 14.91898251527728
SL-8 R/B                
1 11574U 79089B   26061.53211795  .00000285  00000+0  94139-4 0  9993
2 11574  74.0673 104.2945 0017104 277.6823  82.2391 14.42345054435076
SL-14 R/B               
1 11672U 80005B   26061.74778223  .00000710  00000+0  69342-4 0  9990
2 11672  82.5157 313.8205 0015567 180.9466 179.1727 14.90920563475455
SL-8 R/B                
1 12139U 81003B   26061.71503018  .00019842  00000+0  51315-3 0  9999
2 12139  82.9395 296.4730 0262736 202.8612 156.0754 15.10656978313623
SL-3 R/B                
1 12465U 81046B   26061.77568521  .00014125  00000+0  33057-3 0  9996
2 12465  81.2313 298.0461 0020138  45.6598 314.6290 15.41779847437360
SL-3 R/B                
1 12904U 81103B   26061.80040513  .00006780  00000+0  30166-3 0  9994
2 12904  81.1567 221.5134 0012564 311.8549  48.1609 15.21271025972184
SL-3 R/B                
1 13068U 82013B   26061.74563551  .00005676  00000+0  24637-3 0  9991
2 13068  81.1771 168.9071 0022289 201.0884 158.9432 15.21929234403291
SL-3 R/B                
1 13154U 82039B   26061.76547774  .00003334  00000+0  20157-3 0  9998
2 13154  81.1579 223.9447 0029903 347.0452  13.0001 15.10031044380595
